CCSDS_OMM_VERS = 2.0
CREATION_DATE  = 
ORIGINATOR     = 

OBJECT_NAME    = STARLINK-36708
OBJECT_ID      = 2026-025W
CENTER_NAME    = EARTH
REF_FRAME      = TEME
TIME_SYSTEM    = UTC
MEAN_ELEMENT_THEORY = SGP/SGP4

EPOCH          = 2026-02-14T01:25:21.874944
MEAN_MOTION    = 16.11640300
ECCENTRICITY   = .00094015
INCLINATION    = 97.2804
RA_OF_ASC_NODE = 155.2182
ARG_OF_PERICENTER = 242.2135
MEAN_ANOMALY   = 117.8197

EPHEMERIS_TYPE = 0
CLASSIFICATION_TYPE = U
NORAD_CAT_ID   = 67713
ELEMENT_SET_NO = 999
REV_AT_EPOCH   = 220
BSTAR          = .75812363E-3
MEAN_MOTION_DOT = .784142E-2
MEAN_MOTION_DDOT = .35323069E-3

CCSDS_OMM_VERS = 2.0
CREATION_DATE  = 
ORIGINATOR     = 

OBJECT_NAME    = STARLINK-36702
OBJECT_ID      = 2026-025X
CENTER_NAME    = EARTH
REF_FRAME      = TEME
TIME_SYSTEM    = UTC
MEAN_ELEMENT_THEORY = SGP/SGP4

EPOCH          = 2026-02-14T04:25:02.976672
MEAN_MOTION    = 16.11322342
ECCENTRICITY   = .0010361
INCLINATION    = 97.2796
RA_OF_ASC_NODE = 155.3562
ARG_OF_PERICENTER = 234.3607
MEAN_ANOMALY   = 125.6713

EPHEMERIS_TYPE = 0
CLASSIFICATION_TYPE = U
NORAD_CAT_ID   = 67714
ELEMENT_SET_NO = 999
REV_AT_EPOCH   = 222
BSTAR          = .83223E-3
MEAN_MOTION_DOT = .843192E-2
MEAN_MOTION_DDOT = .4131E-3

CCSDS_OMM_VERS = 2.0
CREATION_DATE  = 
ORIGINATOR     = 

OBJECT_NAME    = STARLINK-36718
OBJECT_ID      = 2026-025Y
CENTER_NAME    = EARTH
REF_FRAME      = TEME
TIME_SYSTEM    = UTC
MEAN_ELEMENT_THEORY = SGP/SGP4

EPOCH          = 2026-02-11T16:00:01.999584
MEAN_MOTION    = 16.12688008
ECCENTRICITY   = .00012611
INCLINATION    = 97.2821
RA_OF_ASC_NODE = 152.5741
ARG_OF_PERICENTER = 60.2520
MEAN_ANOMALY   = 113.3753

EPHEMERIS_TYPE = 0
CLASSIFICATION_TYPE = U
NORAD_CAT_ID   = 67715
ELEMENT_SET_NO = 999
REV_AT_EPOCH   = 166
BSTAR          = -.49254598E-3
MEAN_MOTION_DOT = -.546345E-2
MEAN_MOTION_DDOT = .12503996E-3

CCSDS_OMM_VERS = 2.0
CREATION_DATE  = 
ORIGINATOR     = 

OBJECT_NAME    = STARLINK-36715
OBJECT_ID      = 2026-025Z
CENTER_NAME    = EARTH
REF_FRAME      = TEME
TIME_SYSTEM    = UTC
MEAN_ELEMENT_THEORY = SGP/SGP4

EPOCH          = 2026-02-11T16:00:01.999584
MEAN_MOTION    = 16.12622621
ECCENTRICITY   = .00013943
INCLINATION    = 97.2820
RA_OF_ASC_NODE = 152.5731
ARG_OF_PERICENTER = 46.7177
MEAN_ANOMALY   = 126.0886

EPHEMERIS_TYPE = 0
CLASSIFICATION_TYPE = U
NORAD_CAT_ID   = 67716
ELEMENT_SET_NO = 999
REV_AT_EPOCH   = 172
BSTAR          = -.41086984E-3
MEAN_MOTION_DOT = -.454156E-2
MEAN_MOTION_DDOT = .88565282E-4

CCSDS_OMM_VERS = 2.0
CREATION_DATE  = 
ORIGINATOR     = 

OBJECT_NAME    = STARLINK-36385
OBJECT_ID      = 2026-025AA
CENTER_NAME    = EARTH
REF_FRAME      = TEME
TIME_SYSTEM    = UTC
MEAN_ELEMENT_THEORY = SGP/SGP4

EPOCH          = 2026-02-14T05:55:16.198464
MEAN_MOTION    = 16.11147886
ECCENTRICITY   = .0010846
INCLINATION    = 97.2809
RA_OF_ASC_NODE = 155.4238
ARG_OF_PERICENTER = 243.3595
MEAN_ANOMALY   = 116.6579

EPHEMERIS_TYPE = 0
CLASSIFICATION_TYPE = U
NORAD_CAT_ID   = 67717
ELEMENT_SET_NO = 999
REV_AT_EPOCH   = 223
BSTAR          = .81575E-3
MEAN_MOTION_DOT = .818079E-2
MEAN_MOTION_DDOT = .38462E-3

CCSDS_OMM_VERS = 2.0
CREATION_DATE  = 
ORIGINATOR     = 

OBJECT_NAME    = CZ-2F DEB
OBJECT_ID      = 2026-024E
CENTER_NAME    = EARTH
REF_FRAME      = TEME
TIME_SYSTEM    = UTC
MEAN_ELEMENT_THEORY = SGP/SGP4

EPOCH          = 2026-02-14T14:34:00.864480
MEAN_MOTION    = 15.15274976
ECCENTRICITY   = .0265821
INCLINATION    = 50.3148
RA_OF_ASC_NODE = 131.3262
ARG_OF_PERICENTER = 189.3361
MEAN_ANOMALY   = 170.2598

EPHEMERIS_TYPE = 0
CLASSIFICATION_TYPE = U
NORAD_CAT_ID   = 67718
ELEMENT_SET_NO = 999
REV_AT_EPOCH   = 112
BSTAR          = .43739E-2
MEAN_MOTION_DOT = .213776E-2
MEAN_MOTION_DDOT = 0

CCSDS_OMM_VERS = 2.0
CREATION_DATE  = 
ORIGINATOR     = 

OBJECT_NAME    = CZ-2F DEB
OBJECT_ID      = 2026-024F
CENTER_NAME    = EARTH
REF_FRAME      = TEME
TIME_SYSTEM    = UTC
MEAN_ELEMENT_THEORY = SGP/SGP4

EPOCH          = 2026-02-14T15:10:55.661088
MEAN_MOTION    = 14.96226665
ECCENTRICITY   = .0337775
INCLINATION    = 49.7906
RA_OF_ASC_NODE = 132.2744
ARG_OF_PERICENTER = 179.1151
MEAN_ANOMALY   = 181.0458

EPHEMERIS_TYPE = 0
CLASSIFICATION_TYPE = U
NORAD_CAT_ID   = 67719
ELEMENT_SET_NO = 999
REV_AT_EPOCH   = 78
BSTAR          = .41688E-2
MEAN_MOTION_DOT = .160497E-2
MEAN_MOTION_DDOT = 0

CCSDS_OMM_VERS = 2.0
CREATION_DATE  = 
ORIGINATOR     = 

OBJECT_NAME    = CZ-2F DEB
OBJECT_ID      = 2026-024G
CENTER_NAME    = EARTH
REF_FRAME      = TEME
TIME_SYSTEM    = UTC
MEAN_ELEMENT_THEORY = SGP/SGP4

EPOCH          = 2026-02-14T15:30:07.933824
MEAN_MOTION    = 14.93564209
ECCENTRICITY   = .034858
INCLINATION    = 49.8305
RA_OF_ASC_NODE = 132.3450
ARG_OF_PERICENTER = 175.8415
MEAN_ANOMALY   = 184.5557

EPHEMERIS_TYPE = 0
CLASSIFICATION_TYPE = U
NORAD_CAT_ID   = 67720
ELEMENT_SET_NO = 999
REV_AT_EPOCH   = 110
BSTAR          = .43118E-2
MEAN_MOTION_DOT = .161943E-2
MEAN_MOTION_DDOT = 0

CCSDS_OMM_VERS = 2.0
CREATION_DATE  = 
ORIGINATOR     = 

OBJECT_NAME    = 2026-027A
OBJECT_ID      = 2026-027A
CENTER_NAME    = EARTH
REF_FRAME      = TEME
TIME_SYSTEM    = UTC
MEAN_ELEMENT_THEORY = SGP/SGP4

EPOCH          = 2026-02-14T18:08:25.711296
MEAN_MOTION    = 15.17250571
ECCENTRICITY   = .0009174
INCLINATION    = 97.4873
RA_OF_ASC_NODE = 175.0232
ARG_OF_PERICENTER = 281.0048
MEAN_ANOMALY   = 79.0153

EPHEMERIS_TYPE = 0
CLASSIFICATION_TYPE = U
NORAD_CAT_ID   = 67746
ELEMENT_SET_NO = 999
REV_AT_EPOCH   = 38
BSTAR          = .41364E-3
MEAN_MOTION_DOT = .8176E-4
MEAN_MOTION_DDOT = 0

CCSDS_OMM_VERS = 2.0
CREATION_DATE  = 
ORIGINATOR     = 

OBJECT_NAME    = 2026-027B
OBJECT_ID      = 2026-027B
CENTER_NAME    = EARTH
REF_FRAME      = TEME
TIME_SYSTEM    = UTC
MEAN_ELEMENT_THEORY = SGP/SGP4

EPOCH          = 2026-02-14T19:43:09.173280
MEAN_MOTION    = 15.17353211
ECCENTRICITY   = .0009342
INCLINATION    = 97.4868
RA_OF_ASC_NODE = 175.0884
ARG_OF_PERICENTER = 283.3722
MEAN_ANOMALY   = 76.6469

EPHEMERIS_TYPE = 0
CLASSIFICATION_TYPE = U
NORAD_CAT_ID   = 67747
ELEMENT_SET_NO = 999
REV_AT_EPOCH   = 39
BSTAR          = .41432E-3
MEAN_MOTION_DOT = .8214E-4
MEAN_MOTION_DDOT = 0

CCSDS_OMM_VERS = 2.0
CREATION_DATE  = 
ORIGINATOR     = 

OBJECT_NAME    = 2027-027C
OBJECT_ID      = 2027-027C
CENTER_NAME    = EARTH
REF_FRAME      = TEME
TIME_SYSTEM    = UTC
MEAN_ELEMENT_THEORY = SGP/SGP4

EPOCH          = 2026-02-14T18:07:50.403072
MEAN_MOTION    = 15.17493937
ECCENTRICITY   = .0009835
INCLINATION    = 97.4878
RA_OF_ASC_NODE = 175.0240
ARG_OF_PERICENTER = 286.8833
MEAN_ANOMALY   = 73.1321

EPHEMERIS_TYPE = 0
CLASSIFICATION_TYPE = U
NORAD_CAT_ID   = 67748
ELEMENT_SET_NO = 999
REV_AT_EPOCH   = 38
BSTAR          = .28348E-3
MEAN_MOTION_DOT = .562E-4
MEAN_MOTION_DDOT = 0

CCSDS_OMM_VERS = 2.0
CREATION_DATE  = 
ORIGINATOR     = 

OBJECT_NAME    = 2026-027D
OBJECT_ID      = 2026-027D
CENTER_NAME    = EARTH
REF_FRAME      = TEME
TIME_SYSTEM    = UTC
MEAN_ELEMENT_THEORY = SGP/SGP4

EPOCH          = 2026-02-14T19:42:28.146240
MEAN_MOTION    = 15.17639511
ECCENTRICITY   = .0009615
INCLINATION    = 97.4875
RA_OF_ASC_NODE = 175.0895
ARG_OF_PERICENTER = 290.5877
MEAN_ANOMALY   = 69.4325

EPHEMERIS_TYPE = 0
CLASSIFICATION_TYPE = U
NORAD_CAT_ID   = 67749
ELEMENT_SET_NO = 999
REV_AT_EPOCH   = 39
BSTAR          = .43711E-3
MEAN_MOTION_DOT = .8742E-4
MEAN_MOTION_DDOT = 0

