STARLINK-36708          
1 67713U 26025W   26045.05928096  .00784142  35323-3  75812-3 0  9996
2 67713  97.2804 155.2182 0009401 242.2135 117.8197 16.11640300  2203
STARLINK-36702          
1 67714U 26025X   26045.18406223  .00843192  41310-3  83223-3 0  9993
2 67714  97.2796 155.3562 0010361 234.3607 125.6713 16.11322342  2226
STARLINK-36718          
1 67715U 26025Y   26042.66668981 -.00546345  12504-3 -49255-3 0  9997
2 67715  97.2821 152.5741 0001261  60.2520 113.3753 16.12688008  1663
STARLINK-36715          
1 67716U 26025Z   26042.66668981 -.00454156  88565-4 -41087-3 0  9992
2 67716  97.2820 152.5731 0001394  46.7177 126.0886 16.12622621  1720
STARLINK-36385          
1 67717U 26025AA  26045.24671526  .00818079  38462-3  81575-3 0  9991
2 67717  97.2809 155.4238 0010846 243.3595 116.6579 16.11147886  2238
CZ-2F DEB               
1 67718U 26024E   26045.60695445  .00213776  00000+0  43739-2 0  9992
2 67718  50.3148 131.3262 0265821 189.3361 170.2598 15.15274976  1128
CZ-2F DEB               
1 67719U 26024F   26045.63258867  .00160497  00000+0  41688-2 0  9991
2 67719  49.7906 132.2744 0337775 179.1151 181.0458 14.96226665   786
CZ-2F DEB               
1 67720U 26024G   26045.64592516  .00161943  00000+0  43118-2 0  9993
2 67720  49.8305 132.3450 0348580 175.8415 184.5557 14.93564209  1100
2026-027A               
1 67746U 26027A   26045.75585314  .00008176  00000+0  41364-3 0  9994
2 67746  97.4873 175.0232 0009174 281.0048  79.0153 15.17250571   384
2026-027B               
1 67747U 26027B   26045.82163395  .00008214  00000+0  41432-3 0  9993
2 67747  97.4868 175.0884 0009342 283.3722  76.6469 15.17353211   392
2027-027C               
1 67748U 27027C   26045.75544448  .00005620  00000+0  28348-3 0  9998
2 67748  97.4878 175.0240 0009835 286.8833  73.1321 15.17493937   386
2026-027D               
1 67749U 26027D   26045.82115910  .00008742  00000+0  43711-3 0  9993
2 67749  97.4875 175.0895 0009615 290.5877  69.4325 15.17639511   399
